[{"OBJECT_NAME":"ONEWEB-0092","OBJECT_ID":"2020-020P","EPOCH":"2025-08-15T14:27:53.785440","MEAN_MOTION":13.11414227,"ECCENTRICITY":0.0001688,"INCLINATION":87.8794,"RA_OF_ASC_NODE":81.9603,"ARG_OF_PERICENTER":91.4076,"MEAN_ANOMALY":268.7245,"EPHEMERIS_TYPE":0,"CLASSIFICATION_TYPE":"U","NORAD_CAT_ID":45437,"ELEMENT_SET_NO":999,"REV_AT_EPOCH":26273,"BSTAR":0.00031957,"MEAN_MOTION_DOT":1.26e-6,"MEAN_MOTION_DDOT":0},{"OBJECT_NAME":"ONEWEB-0085","OBJECT_ID":"2020-020Q","EPOCH":"2025-08-15T13:25:13.436256","MEAN_MOTION":13.10859628,"ECCENTRICITY":0.000174,"INCLINATION":87.8791,"RA_OF_ASC_NODE":81.983,"ARG_OF_PERICENTER":88.4019,"MEAN_ANOMALY":271.7308,"EPHEMERIS_TYPE":0,"CLASSIFICATION_TYPE":"U","NORAD_CAT_ID":45438,"ELEMENT_SET_NO":999,"REV_AT_EPOCH":26261,"BSTAR":-0.0011184,"MEAN_MOTION_DOT":-3.8e-6,"MEAN_MOTION_DDOT":0},{"OBJECT_NAME":"ONEWEB-0096","OBJECT_ID":"2020-020R","EPOCH":"2025-08-15T13:32:58.169760","MEAN_MOTION":13.11418022,"ECCENTRICITY":0.0001957,"INCLINATION":87.8803,"RA_OF_ASC_NODE":81.9488,"ARG_OF_PERICENTER":80.5487,"MEAN_ANOMALY":279.5862,"EPHEMERIS_TYPE":0,"CLASSIFICATION_TYPE":"U","NORAD_CAT_ID":45439,"ELEMENT_SET_NO":999,"REV_AT_EPOCH":26260,"BSTAR":-0.00036292,"MEAN_MOTION_DOT":-1.16e-6,"MEAN_MOTION_DDOT":0},{"OBJECT_NAME":"ONEWEB-0037","OBJECT_ID":"2020-020S","EPOCH":"2025-08-15T13:04:52.963680","MEAN_MOTION":13.11417367,"ECCENTRICITY":0.0001707,"INCLINATION":87.8802,"RA_OF_ASC_NODE":81.9176,"ARG_OF_PERICENTER":87.6553,"MEAN_ANOMALY":272.477,"EPHEMERIS_TYPE":0,"CLASSIFICATION_TYPE":"U","NORAD_CAT_ID":45440,"ELEMENT_SET_NO":999,"REV_AT_EPOCH":26263,"BSTAR":-0.0015051,"MEAN_MOTION_DOT":-5.21e-6,"MEAN_MOTION_DDOT":0},{"OBJECT_NAME":"ONEWEB-0042","OBJECT_ID":"2020-020T","EPOCH":"2025-08-15T02:18:52.657056","MEAN_MOTION":13.1141646,"ECCENTRICITY":0.000184,"INCLINATION":87.8795,"RA_OF_ASC_NODE":82.0507,"ARG_OF_PERICENTER":87.2504,"MEAN_ANOMALY":272.8834,"EPHEMERIS_TYPE":0,"CLASSIFICATION_TYPE":"U","NORAD_CAT_ID":45441,"ELEMENT_SET_NO":999,"REV_AT_EPOCH":26254,"BSTAR":-0.0010116,"MEAN_MOTION_DOT":-3.46e-6,"MEAN_MOTION_DDOT":0},{"OBJECT_NAME":"ONEWEB-0098","OBJECT_ID":"2020-020U","EPOCH":"2025-08-15T13:12:12.497760","MEAN_MOTION":13.11417523,"ECCENTRICITY":0.0001552,"INCLINATION":87.8792,"RA_OF_ASC_NODE":81.9702,"ARG_OF_PERICENTER":76.3892,"MEAN_ANOMALY":283.7409,"EPHEMERIS_TYPE":0,"CLASSIFICATION_TYPE":"U","NORAD_CAT_ID":45442,"ELEMENT_SET_NO":999,"REV_AT_EPOCH":26258,"BSTAR":-0.0015993,"MEAN_MOTION_DOT":-5.54e-6,"MEAN_MOTION_DDOT":0},{"OBJECT_NAME":"ONEWEB-0055","OBJECT_ID":"2020-020V","EPOCH":"2025-08-15T07:18:11.579616","MEAN_MOTION":13.11414101,"ECCENTRICITY":0.0001707,"INCLINATION":87.8791,"RA_OF_ASC_NODE":82.0206,"ARG_OF_PERICENTER":81.5571,"MEAN_ANOMALY":278.575,"EPHEMERIS_TYPE":0,"CLASSIFICATION_TYPE":"U","NORAD_CAT_ID":45443,"ELEMENT_SET_NO":999,"REV_AT_EPOCH":26252,"BSTAR":-0.00072023,"MEAN_MOTION_DOT":-2.43e-6,"MEAN_MOTION_DDOT":0},{"OBJECT_NAME":"ONEWEB-0093","OBJECT_ID":"2020-020W","EPOCH":"2025-08-15T12:12:36.490752","MEAN_MOTION":13.11417466,"ECCENTRICITY":0.0002192,"INCLINATION":87.8792,"RA_OF_ASC_NODE":81.965,"ARG_OF_PERICENTER":87.5409,"MEAN_ANOMALY":272.597,"EPHEMERIS_TYPE":0,"CLASSIFICATION_TYPE":"U","NORAD_CAT_ID":45444,"ELEMENT_SET_NO":999,"REV_AT_EPOCH":26261,"BSTAR":0.0014789,"MEAN_MOTION_DOT":5.37e-6,"MEAN_MOTION_DDOT":0},{"OBJECT_NAME":"ONEWEB-0029","OBJECT_ID":"2020-020X","EPOCH":"2025-08-15T12:35:35.952288","MEAN_MOTION":13.11413292,"ECCENTRICITY":0.0001869,"INCLINATION":87.8794,"RA_OF_ASC_NODE":81.974,"ARG_OF_PERICENTER":82.0859,"MEAN_ANOMALY":278.0481,"EPHEMERIS_TYPE":0,"CLASSIFICATION_TYPE":"U","NORAD_CAT_ID":45445,"ELEMENT_SET_NO":999,"REV_AT_EPOCH":26259,"BSTAR":0.00028169,"MEAN_MOTION_DOT":1.13e-6,"MEAN_MOTION_DDOT":0},{"OBJECT_NAME":"ONEWEB-0068","OBJECT_ID":"2020-020Y","EPOCH":"2025-08-15T08:32:26.609856","MEAN_MOTION":13.11419435,"ECCENTRICITY":0.0001917,"INCLINATION":87.8793,"RA_OF_ASC_NODE":81.9964,"ARG_OF_PERICENTER":82.2436,"MEAN_ANOMALY":277.8909,"EPHEMERIS_TYPE":0,"CLASSIFICATION_TYPE":"U","NORAD_CAT_ID":45446,"ELEMENT_SET_NO":999,"REV_AT_EPOCH":26251,"BSTAR":0.0014579,"MEAN_MOTION_DOT":5.29e-6,"MEAN_MOTION_DDOT":0},{"OBJECT_NAME":"ONEWEB-0046","OBJECT_ID":"2020-020Z","EPOCH":"2025-08-15T12:00:11.690784","MEAN_MOTION":13.11418931,"ECCENTRICITY":0.0001949,"INCLINATION":87.8794,"RA_OF_ASC_NODE":81.9777,"ARG_OF_PERICENTER":89.2837,"MEAN_ANOMALY":270.8514,"EPHEMERIS_TYPE":0,"CLASSIFICATION_TYPE":"U","NORAD_CAT_ID":45447,"ELEMENT_SET_NO":999,"REV_AT_EPOCH":26254,"BSTAR":0.0012459,"MEAN_MOTION_DOT":4.54e-6,"MEAN_MOTION_DDOT":0},{"OBJECT_NAME":"ONEWEB-0063","OBJECT_ID":"2020-020AA","EPOCH":"2025-08-15T14:31:33.637152","MEAN_MOTION":13.11413911,"ECCENTRICITY":0.0001708,"INCLINATION":87.8793,"RA_OF_ASC_NODE":81.9548,"ARG_OF_PERICENTER":90.8834,"MEAN_ANOMALY":269.2489,"EPHEMERIS_TYPE":0,"CLASSIFICATION_TYPE":"U","NORAD_CAT_ID":45448,"ELEMENT_SET_NO":999,"REV_AT_EPOCH":26264,"BSTAR":-8.1502e-5,"MEAN_MOTION_DOT":-1.6e-7,"MEAN_MOTION_DDOT":0},{"OBJECT_NAME":"ONEWEB-0019","OBJECT_ID":"2020-020AB","EPOCH":"2025-08-15T12:03:51.928704","MEAN_MOTION":13.1141696,"ECCENTRICITY":0.000178,"INCLINATION":87.879,"RA_OF_ASC_NODE":81.9927,"ARG_OF_PERICENTER":80.0858,"MEAN_ANOMALY":280.047,"EPHEMERIS_TYPE":0,"CLASSIFICATION_TYPE":"U","NORAD_CAT_ID":45449,"ELEMENT_SET_NO":999,"REV_AT_EPOCH":26247,"BSTAR":0.0010285,"MEAN_MOTION_DOT":3.77e-6,"MEAN_MOTION_DDOT":0},{"OBJECT_NAME":"ONEWEB-0094","OBJECT_ID":"2020-020AC","EPOCH":"2025-08-15T11:39:05.251680","MEAN_MOTION":13.1789097,"ECCENTRICITY":0.0001859,"INCLINATION":87.9031,"RA_OF_ASC_NODE":66.6662,"ARG_OF_PERICENTER":88.1626,"MEAN_ANOMALY":271.9718,"EPHEMERIS_TYPE":0,"CLASSIFICATION_TYPE":"U","NORAD_CAT_ID":45450,"ELEMENT_SET_NO":999,"REV_AT_EPOCH":26605,"BSTAR":0.00010428,"MEAN_MOTION_DOT":5.4e-7,"MEAN_MOTION_DDOT":0},{"OBJECT_NAME":"ONEWEB-0087","OBJECT_ID":"2020-020AD","EPOCH":"2025-08-15T12:56:06.609696","MEAN_MOTION":13.11417906,"ECCENTRICITY":0.0001998,"INCLINATION":87.8786,"RA_OF_ASC_NODE":81.9179,"ARG_OF_PERICENTER":82.6708,"MEAN_ANOMALY":277.4647,"EPHEMERIS_TYPE":0,"CLASSIFICATION_TYPE":"U","NORAD_CAT_ID":45451,"ELEMENT_SET_NO":999,"REV_AT_EPOCH":26252,"BSTAR":-0.0010826,"MEAN_MOTION_DOT":-3.71e-6,"MEAN_MOTION_DDOT":0},{"OBJECT_NAME":"ONEWEB-0082","OBJECT_ID":"2020-020AE","EPOCH":"2025-08-15T12:51:28.260864","MEAN_MOTION":13.11414528,"ECCENTRICITY":0.0001833,"INCLINATION":87.8793,"RA_OF_ASC_NODE":81.9439,"ARG_OF_PERICENTER":78.9903,"MEAN_ANOMALY":281.1431,"EPHEMERIS_TYPE":0,"CLASSIFICATION_TYPE":"U","NORAD_CAT_ID":45452,"ELEMENT_SET_NO":999,"REV_AT_EPOCH":26261,"BSTAR":-0.00079838,"MEAN_MOTION_DOT":-2.7e-6,"MEAN_MOTION_DDOT":0},{"OBJECT_NAME":"ONEWEB-0050","OBJECT_ID":"2020-020AF","EPOCH":"2025-08-15T09:12:57.553344","MEAN_MOTION":14.90946383,"ECCENTRICITY":0.0003211,"INCLINATION":87.9957,"RA_OF_ASC_NODE":280.322,"ARG_OF_PERICENTER":46.3172,"MEAN_ANOMALY":313.8322,"EPHEMERIS_TYPE":0,"CLASSIFICATION_TYPE":"U","NORAD_CAT_ID":45453,"ELEMENT_SET_NO":999,"REV_AT_EPOCH":29485,"BSTAR":0.00019524,"MEAN_MOTION_DOT":1.951e-5,"MEAN_MOTION_DDOT":0}]
