ONEWEB-0092             
1 45437U 20020P   25227.60270585  .00000126  00000+0  31957-3 0  9994
2 45437  87.8794  81.9603 0001688  91.4076 268.7245 13.11414227262735
ONEWEB-0085             
1 45438U 20020Q   25227.55918329 -.00000380  00000+0 -11184-2 0  9997
2 45438  87.8791  81.9830 0001740  88.4019 271.7308 13.10859628262615
ONEWEB-0096             
1 45439U 20020R   25227.56456215 -.00000116  00000+0 -36292-3 0  9995
2 45439  87.8803  81.9488 0001957  80.5487 279.5862 13.11418022262601
ONEWEB-0037             
1 45440U 20020S   25227.54505745 -.00000521  00000+0 -15051-2 0  9997
2 45440  87.8802  81.9176 0001707  87.6553 272.4770 13.11417367262635
ONEWEB-0042             
1 45441U 20020T   25227.09644279 -.00000346  00000+0 -10116-2 0  9996
2 45441  87.8795  82.0507 0001840  87.2504 272.8834 13.11416460262545
ONEWEB-0098             
1 45442U 20020U   25227.55014465 -.00000554  00000+0 -15993-2 0  9995
2 45442  87.8792  81.9702 0001552  76.3892 283.7409 13.11417523262581
ONEWEB-0055             
1 45443U 20020V   25227.30430069 -.00000243  00000+0 -72023-3 0  9994
2 45443  87.8791  82.0206 0001707  81.5571 278.5750 13.11414101262520
ONEWEB-0093             
1 45444U 20020W   25227.50875568  .00000537  00000+0  14789-2 0  9992
2 45444  87.8792  81.9650 0002192  87.5409 272.5970 13.11417466262613
ONEWEB-0029             
1 45445U 20020X   25227.52472167  .00000113  00000+0  28169-3 0  9991
2 45445  87.8794  81.9740 0001869  82.0859 278.0481 13.11413292262593
ONEWEB-0068             
1 45446U 20020Y   25227.35586354  .00000529  00000+0  14579-2 0  9997
2 45446  87.8793  81.9964 0001917  82.2436 277.8909 13.11419435262517
ONEWEB-0046             
1 45447U 20020Z   25227.50013531  .00000454  00000+0  12459-2 0  9999
2 45447  87.8794  81.9777 0001949  89.2837 270.8514 13.11418931262546
ONEWEB-0063             
1 45448U 20020AA  25227.60525043 -.00000016  00000+0 -81502-4 0  9990
2 45448  87.8793  81.9548 0001708  90.8834 269.2489 13.11413911262647
ONEWEB-0019             
1 45449U 20020AB  25227.50268436  .00000377  00000+0  10285-2 0  9996
2 45449  87.8790  81.9927 0001780  80.0858 280.0470 13.11416960262472
ONEWEB-0094             
1 45450U 20020AC  25227.48547745  .00000054  00000+0  10428-3 0  9990
2 45450  87.9031  66.6662 0001859  88.1626 271.9718 13.17890970266053
ONEWEB-0087             
1 45451U 20020AD  25227.53896539 -.00000371  00000+0 -10826-2 0  9990
2 45451  87.8786  81.9179 0001998  82.6708 277.4647 13.11417906262525
ONEWEB-0082             
1 45452U 20020AE  25227.53574376 -.00000270  00000+0 -79838-3 0  9990
2 45452  87.8793  81.9439 0001833  78.9903 281.1431 13.11414528262616
ONEWEB-0050             
1 45453U 20020AF  25227.38399946  .00001951  00000+0  19524-3 0  9993
2 45453  87.9957 280.3220 0003211  46.3172 313.8322 14.90946383294852
